[{"OBJECT_NAME":"STARLINK-31566","OBJECT_ID":"2024-068W","EPOCH":"2026-03-09T07:03:01.801440","MEAN_MOTION":15.27575715,"ECCENTRICITY":9.159e-5,"INCLINATION":43.004,"RA_OF_ASC_NODE":36.6226,"ARG_OF_PERICENTER":268.5979,"MEAN_ANOMALY":91.4768,"EPHEMERIS_TYPE":0,"CLASSIFICATION_TYPE":"U","NORAD_CAT_ID":59475,"ELEMENT_SET_NO":999,"REV_AT_EPOCH":10846,"BSTAR":-1.8371019e-5,"MEAN_MOTION_DOT":-7.67e-6,"MEAN_MOTION_DDOT":0},{"OBJECT_NAME":"TRANSPORTER-12 OBJECT AZ","OBJECT_ID":"2025-009AZ","EPOCH":"2026-03-09T17:02:46.667040","MEAN_MOTION":15.30349724,"ECCENTRICITY":9.87e-5,"INCLINATION":97.3981,"RA_OF_ASC_NODE":151.9913,"ARG_OF_PERICENTER":45.3581,"MEAN_ANOMALY":314.774,"EPHEMERIS_TYPE":0,"CLASSIFICATION_TYPE":"U","NORAD_CAT_ID":62656,"ELEMENT_SET_NO":999,"REV_AT_EPOCH":6379,"BSTAR":0.00054902545,"MEAN_MOTION_DOT":0.00016057,"MEAN_MOTION_DDOT":0}]
